[{"OBJECT_NAME":"GAOFEN-6","OBJECT_ID":"2018-048A","EPOCH":"2026-03-09T22:21:32.182272","MEAN_MOTION":14.76596577,"ECCENTRICITY":0.0013191,"INCLINATION":97.7867,"RA_OF_ASC_NODE":135.2035,"ARG_OF_PERICENTER":134.0247,"MEAN_ANOMALY":226.2053,"EPHEMERIS_TYPE":0,"CLASSIFICATION_TYPE":"U","NORAD_CAT_ID":43484,"ELEMENT_SET_NO":999,"REV_AT_EPOCH":41874,"BSTAR":0.00014448812,"MEAN_MOTION_DOT":9.61e-6,"MEAN_MOTION_DDOT":0},{"OBJECT_NAME":"FENGYUN 1C DEB","OBJECT_ID":"1999-025EXH","EPOCH":"2026-03-08T14:13:09.730272","MEAN_MOTION":14.78249058,"ECCENTRICITY":0.00677162,"INCLINATION":98.9664,"RA_OF_ASC_NODE":0.939,"ARG_OF_PERICENTER":23.3958,"MEAN_ANOMALY":337.0306,"EPHEMERIS_TYPE":0,"CLASSIFICATION_TYPE":"U","NORAD_CAT_ID":41003,"ELEMENT_SET_NO":999,"REV_AT_EPOCH":53686,"BSTAR":0.0070018582,"MEAN_MOTION_DOT":0.0005312,"MEAN_MOTION_DDOT":0}]
